CCSDS_OMM_VERS = 2.0
CREATION_DATE  = 
ORIGINATOR     = 

OBJECT_NAME    = DELTA 1 R/B
OBJECT_ID      = 1989-089B
CENTER_NAME    = EARTH
REF_FRAME      = TEME
TIME_SYSTEM    = UTC
MEAN_ELEMENT_THEORY = SGP/SGP4

EPOCH          = 2025-10-30T14:17:17.155680
MEAN_MOTION    = 14.50517989
ECCENTRICITY   = .00693206
INCLINATION    = 97.0801
RA_OF_ASC_NODE = 166.6620
ARG_OF_PERICENTER = 172.4718
MEAN_ANOMALY   = 187.7538

EPHEMERIS_TYPE = 0
CLASSIFICATION_TYPE = U
NORAD_CAT_ID   = 20323
ELEMENT_SET_NO = 999
REV_AT_EPOCH   = 87687
BSTAR          = .12277522E-3
MEAN_MOTION_DOT = .46E-5
MEAN_MOTION_DDOT = 0

CCSDS_OMM_VERS = 2.0
CREATION_DATE  = 
ORIGINATOR     = 

OBJECT_NAME    = ARIANE 40 R/B
OBJECT_ID      = 1990-005H
CENTER_NAME    = EARTH
REF_FRAME      = TEME
TIME_SYSTEM    = UTC
MEAN_ELEMENT_THEORY = SGP/SGP4

EPOCH          = 2025-10-30T13:58:36.319584
MEAN_MOTION    = 14.39747659
ECCENTRICITY   = .00092356
INCLINATION    = 98.3303
RA_OF_ASC_NODE = 2.9678
ARG_OF_PERICENTER = 231.8601
MEAN_ANOMALY   = 128.1756

EPHEMERIS_TYPE = 0
CLASSIFICATION_TYPE = U
NORAD_CAT_ID   = 20443
ELEMENT_SET_NO = 999
REV_AT_EPOCH   = 87408
BSTAR          = .14852422E-3
MEAN_MOTION_DOT = .423E-5
MEAN_MOTION_DDOT = 0

CCSDS_OMM_VERS = 2.0
CREATION_DATE  = 
ORIGINATOR     = 

OBJECT_NAME    = DELTA 2 R/B(1)
OBJECT_ID      = 1990-008B
CENTER_NAME    = EARTH
REF_FRAME      = TEME
TIME_SYSTEM    = UTC
MEAN_ELEMENT_THEORY = SGP/SGP4

EPOCH          = 2025-10-30T06:36:54.387072
MEAN_MOTION    = 15.41270991
ECCENTRICITY   = .01183883
INCLINATION    = 35.6074
RA_OF_ASC_NODE = 300.3524
ARG_OF_PERICENTER = 143.3432
MEAN_ANOMALY   = 217.5469

EPHEMERIS_TYPE = 0
CLASSIFICATION_TYPE = U
NORAD_CAT_ID   = 20453
ELEMENT_SET_NO = 999
REV_AT_EPOCH   = 90591
BSTAR          = .74791914E-3
MEAN_MOTION_DOT = .41519E-3
MEAN_MOTION_DDOT = 0

CCSDS_OMM_VERS = 2.0
CREATION_DATE  = 
ORIGINATOR     = 

OBJECT_NAME    = COSMOS 2058
OBJECT_ID      = 1990-010A
CENTER_NAME    = EARTH
REF_FRAME      = TEME
TIME_SYSTEM    = UTC
MEAN_ELEMENT_THEORY = SGP/SGP4

EPOCH          = 2025-10-30T21:20:36.397824
MEAN_MOTION    = 15.09996804
ECCENTRICITY   = .00115007
INCLINATION    = 82.4697
RA_OF_ASC_NODE = 175.1776
ARG_OF_PERICENTER = 59.8920
MEAN_ANOMALY   = 300.3448

EPHEMERIS_TYPE = 0
CLASSIFICATION_TYPE = U
NORAD_CAT_ID   = 20465
ELEMENT_SET_NO = 999
REV_AT_EPOCH   = 92264
BSTAR          = .31020193E-3
MEAN_MOTION_DOT = .5073E-4
MEAN_MOTION_DDOT = 0

CCSDS_OMM_VERS = 2.0
CREATION_DATE  = 
ORIGINATOR     = 

OBJECT_NAME    = SL-14 R/B
OBJECT_ID      = 1990-010B
CENTER_NAME    = EARTH
REF_FRAME      = TEME
TIME_SYSTEM    = UTC
MEAN_ELEMENT_THEORY = SGP/SGP4

EPOCH          = 2025-10-30T17:03:36.583776
MEAN_MOTION    = 14.83411520
ECCENTRICITY   = .00200979
INCLINATION    = 82.5054
RA_OF_ASC_NODE = 29.4495
ARG_OF_PERICENTER = 12.6386
MEAN_ANOMALY   = 347.5328

EPHEMERIS_TYPE = 0
CLASSIFICATION_TYPE = U
NORAD_CAT_ID   = 20466
ELEMENT_SET_NO = 999
REV_AT_EPOCH   = 90921
BSTAR          = .76444724E-4
MEAN_MOTION_DOT = .653E-5
MEAN_MOTION_DDOT = 0

CCSDS_OMM_VERS = 2.0
CREATION_DATE  = 
ORIGINATOR     = 

OBJECT_NAME    = SL-14 R/B
OBJECT_ID      = 1990-018B
CENTER_NAME    = EARTH
REF_FRAME      = TEME
TIME_SYSTEM    = UTC
MEAN_ELEMENT_THEORY = SGP/SGP4

EPOCH          = 2025-10-30T12:51:59.836608
MEAN_MOTION    = 14.81986395
ECCENTRICITY   = .00170591
INCLINATION    = 82.5223
RA_OF_ASC_NODE = 344.7491
ARG_OF_PERICENTER = 155.7253
MEAN_ANOMALY   = 204.4769

EPHEMERIS_TYPE = 0
CLASSIFICATION_TYPE = U
NORAD_CAT_ID   = 20511
ELEMENT_SET_NO = 999
REV_AT_EPOCH   = 90330
BSTAR          = .71268708E-4
MEAN_MOTION_DOT = .59E-5
MEAN_MOTION_DDOT = 0

CCSDS_OMM_VERS = 2.0
CREATION_DATE  = 
ORIGINATOR     = 

OBJECT_NAME    = HST
OBJECT_ID      = 1990-037B
CENTER_NAME    = EARTH
REF_FRAME      = TEME
TIME_SYSTEM    = UTC
MEAN_ELEMENT_THEORY = SGP/SGP4

EPOCH          = 2025-10-30T00:30:33.514272
MEAN_MOTION    = 15.27218674
ECCENTRICITY   = .00020701
INCLINATION    = 28.4669
RA_OF_ASC_NODE = 209.8759
ARG_OF_PERICENTER = 104.0895
MEAN_ANOMALY   = 255.9930

EPHEMERIS_TYPE = 0
CLASSIFICATION_TYPE = U
NORAD_CAT_ID   = 20580
ELEMENT_SET_NO = 999
REV_AT_EPOCH   = 75330
BSTAR          = .34924536E-3
MEAN_MOTION_DOT = .9815E-4
MEAN_MOTION_DDOT = 0

CCSDS_OMM_VERS = 2.0
CREATION_DATE  = 
ORIGINATOR     = 

OBJECT_NAME    = SL-16 R/B
OBJECT_ID      = 1990-046B
CENTER_NAME    = EARTH
REF_FRAME      = TEME
TIME_SYSTEM    = UTC
MEAN_ELEMENT_THEORY = SGP/SGP4

EPOCH          = 2025-10-30T16:39:21.773664
MEAN_MOTION    = 14.14992213
ECCENTRICITY   = .0012809
INCLINATION    = 71.0000
RA_OF_ASC_NODE = 210.9190
ARG_OF_PERICENTER = 150.3239
MEAN_ANOMALY   = 209.8613

EPHEMERIS_TYPE = 0
CLASSIFICATION_TYPE = U
NORAD_CAT_ID   = 20625
ELEMENT_SET_NO = 999
REV_AT_EPOCH   = 83000
BSTAR          = .53436813E-4
MEAN_MOTION_DOT = .56E-6
MEAN_MOTION_DDOT = 0

CCSDS_OMM_VERS = 2.0
CREATION_DATE  = 
ORIGINATOR     = 

OBJECT_NAME    = COSMOS 2084
OBJECT_ID      = 1990-055A
CENTER_NAME    = EARTH
REF_FRAME      = TEME
TIME_SYSTEM    = UTC
MEAN_ELEMENT_THEORY = SGP/SGP4

EPOCH          = 2025-10-30T16:58:18.873696
MEAN_MOTION    = 15.04620379
ECCENTRICITY   = .00389269
INCLINATION    = 62.7909
RA_OF_ASC_NODE = 58.5766
ARG_OF_PERICENTER = 169.5980
MEAN_ANOMALY   = 190.5934

EPHEMERIS_TYPE = 0
CLASSIFICATION_TYPE = U
NORAD_CAT_ID   = 20663
ELEMENT_SET_NO = 999
REV_AT_EPOCH   = 91675
BSTAR          = .37637316E-3
MEAN_MOTION_DOT = .5199E-4
MEAN_MOTION_DDOT = 0

CCSDS_OMM_VERS = 2.0
CREATION_DATE  = 
ORIGINATOR     = 

OBJECT_NAME    = SL-6 R/B(2)
OBJECT_ID      = 1990-055D
CENTER_NAME    = EARTH
REF_FRAME      = TEME
TIME_SYSTEM    = UTC
MEAN_ELEMENT_THEORY = SGP/SGP4

EPOCH          = 2025-10-30T12:28:06.838176
MEAN_MOTION    = 15.02755325
ECCENTRICITY   = .0010696
INCLINATION    = 62.7846
RA_OF_ASC_NODE = 336.2365
ARG_OF_PERICENTER = 269.4879
MEAN_ANOMALY   = 90.4994

EPHEMERIS_TYPE = 0
CLASSIFICATION_TYPE = U
NORAD_CAT_ID   = 20666
ELEMENT_SET_NO = 999
REV_AT_EPOCH   = 91862
BSTAR          = .24196393E-3
MEAN_MOTION_DOT = .3059E-4
MEAN_MOTION_DDOT = 0

CCSDS_OMM_VERS = 2.0
CREATION_DATE  = 
ORIGINATOR     = 

OBJECT_NAME    = SL-8 R/B
OBJECT_ID      = 1990-078B
CENTER_NAME    = EARTH
REF_FRAME      = TEME
TIME_SYSTEM    = UTC
MEAN_ELEMENT_THEORY = SGP/SGP4

EPOCH          = 2025-10-30T16:01:10.920000
MEAN_MOTION    = 14.83756214
ECCENTRICITY   = .03834007
INCLINATION    = 82.9088
RA_OF_ASC_NODE = 7.7789
ARG_OF_PERICENTER = 89.7709
MEAN_ANOMALY   = 274.7426

EPHEMERIS_TYPE = 0
CLASSIFICATION_TYPE = U
NORAD_CAT_ID   = 20775
ELEMENT_SET_NO = 999
REV_AT_EPOCH   = 78998
BSTAR          = .61314325E-3
MEAN_MOTION_DOT = .19828E-3
MEAN_MOTION_DDOT = 0

CCSDS_OMM_VERS = 2.0
CREATION_DATE  = 
ORIGINATOR     = 

OBJECT_NAME    = SL-8 R/B
OBJECT_ID      = 1991-006B
CENTER_NAME    = EARTH
REF_FRAME      = TEME
TIME_SYSTEM    = UTC
MEAN_ELEMENT_THEORY = SGP/SGP4

EPOCH          = 2025-10-30T19:31:03.351072
MEAN_MOTION    = 13.77480338
ECCENTRICITY   = .00235271
INCLINATION    = 82.9397
RA_OF_ASC_NODE = 266.6463
ARG_OF_PERICENTER = 41.7236
MEAN_ANOMALY   = 334.4428

EPHEMERIS_TYPE = 0
CLASSIFICATION_TYPE = U
NORAD_CAT_ID   = 21088
ELEMENT_SET_NO = 999
REV_AT_EPOCH   = 74619
BSTAR          = .17720037E-3
MEAN_MOTION_DOT = .192E-5
MEAN_MOTION_DDOT = 0

