DELTA 1 R/B             
1 20323U 89089B   25303.59533745  .00000460  00000+0  12278-3 0  9990
2 20323  97.0801 166.6620 0069320 172.4718 187.7538 14.50517989876878
ARIANE 40 R/B           
1 20443U 90005H   25303.58236481  .00000423  00000+0  14852-3 0  9998
2 20443  98.3303   2.9678 0009235 231.8601 128.1756 14.39747659874085
DELTA 2 R/B(1)          
1 20453U 90008B   25303.27562948  .00041519  00000+0  74792-3 0  9998
2 20453  35.6074 300.3524 0118388 143.3432 217.5469 15.41270991905914
COSMOS 2058             
1 20465U 90010A   25303.88931016  .00005073  00000+0  31020-3 0  9999
2 20465  82.4697 175.1776 0011500  59.8920 300.3448 15.09996804922645
SL-14 R/B               
1 20466U 90010B   25303.71084009  .00000653  00000+0  76445-4 0  9993
2 20466  82.5054  29.4495 0020097  12.6386 347.5328 14.83411520909213
SL-14 R/B               
1 20511U 90018B   25303.53610922  .00000590  00000+0  71269-4 0  9990
2 20511  82.5223 344.7491 0017059 155.7253 204.4769 14.81986395903306
HST                     
1 20580U 90037B   25303.02122123  .00009815  00000+0  34925-3 0  9998
2 20580  28.4669 209.8759 0002070 104.0895 255.9930 15.27218674753302
SL-16 R/B               
1 20625U 90046B   25303.69400201  .00000056  00000+0  53437-4 0  9995
2 20625  71.0000 210.9190 0012809 150.3239 209.8613 14.14992213830006
COSMOS 2084             
1 20663U 90055A   25303.70716289  .00005199  00000+0  37637-3 0  9991
2 20663  62.7909  58.5766 0038926 169.5980 190.5934 15.04620379916751
SL-6 R/B(2)             
1 20666U 90055D   25303.51952359  .00003059  00000+0  24196-3 0  9992
2 20666  62.7846 336.2365 0010696 269.4879  90.4994 15.02755325918626
SL-8 R/B                
1 20775U 90078B   25303.66748750  .00019828  00000+0  61314-3 0  9996
2 20775  82.9088   7.7789 0383400  89.7709 274.7426 14.83756214789988
SL-8 R/B                
1 21088U 91006B   25303.81323323  .00000192  00000+0  17720-3 0  9994
2 21088  82.9397 266.6463 0023527  41.7236 334.4428 13.77480338746193
